H1 CPF 01  gfz 2021 08 14 12  7262 terrasarx 
H2 0702601  6201 31698    2021 08 14 12 59 42 2021 08 19 00 00 42   120 1 1  0 0 0
H9
10 0 59441  10062.000000  0    4231453.756   4056204.767  -3628012.676
10 0 59441  10182.000000  0    3980534.042   3559012.294  -4360793.707
10 0 59441  10302.000000  0    3651182.861   3004996.045  -5017190.588
10 0 59441  10422.000000  0    3248298.510   2405177.796  -5585797.994
10 0 59441  10542.000000  0    2778238.692   1771252.785  -6056763.864
10 0 59441  10662.000000  0    2248714.661   1115359.639  -6421949.352
10 0 59441  10782.000000  0    1668660.768    449848.742  -6675057.059
10 0 59441  10902.000000  0    1048083.798   -212946.501  -6811729.062
10 0 59441  11022.000000  0     397891.177   -860934.041  -6829615.396
10 0 59441  11142.000000  0    -270297.924  -1482478.722  -6728408.158
10 0 59441  11262.000000  0    -944354.391  -2066604.894  -6509845.948
10 0 59441  11382.000000  0   -1611854.158  -2603186.235  -6177688.522
10 0 59441  11502.000000  0   -2260302.001  -3083119.403  -5737658.450
10 0 59441  11622.000000  0   -2877360.745  -3498478.186  -5197352.947
10 0 59441  11742.000000  0   -3451084.890  -3842647.969  -4566125.207
10 0 59441  11862.000000  0   -3970153.347  -4110436.131  -3854932.906
10 0 59441  11982.000000  0   -4424095.610  -4298155.807  -3076157.463
10 0 59441  12102.000000  0   -4803507.879  -4403681.656  -2243395.214
10 0 59441  12222.000000  0   -5100253.170  -4426474.939  -1371222.897
10 0 59441  12342.000000  0   -5307640.366  -4367577.091   -474941.871
10 0 59441  12462.000000  0   -5420577.550  -4229571.574    429694.271
10 0 59441  12582.000000  0   -5435695.148  -4016514.470   1326764.177
10 0 59441  12702.000000  0   -5351434.077  -3733834.038   2200468.827
10 0 59441  12822.000000  0   -5168096.798  -3388201.866   3035418.873
10 0 59441  12942.000000  0   -4887860.587  -2987380.230   3816913.137
10 0 59441  13062.000000  0   -4514752.902  -2540049.081   4531203.506
10 0 59441  13182.000000  0   -4054588.492  -2055616.602   5165739.119
10 0 59441  13302.000000  0   -3514872.606  -1544020.091   5709384.864
10 0 59441  13422.000000  0   -2904672.924  -1015521.386   6152614.131
10 0 59441  13542.000000  0   -2234460.577   -480499.274   6487672.270
10 0 59441  13662.000000  0   -1515923.973     50755.872   6708705.658
10 0 59441  13782.000000  0    -761761.535    568238.592   6811856.564
10 0 59441  13902.000000  0      14543.149   1062415.297   6795326.288
10 0 59441  14022.000000  0     798961.845   1524399.316   6659404.634
10 0 59441  14142.000000  0    1577174.506   1946110.917   6406465.152
10 0 59441  14262.000000  0    2334829.776   2320418.582   6040925.640
10 0 59441  14382.000000  0    3057809.377   2641260.332   5569176.533
10 0 59441  14502.000000  0    3732493.898   2903743.996   4999475.716
10 0 59441  14622.000000  0    4346022.798   3104223.948   4341809.013
10 0 59441  14742.000000  0    4886543.909   3240352.598   3607721.185
10 0 59441  14862.000000  0    5343452.234   3311106.637   2810116.592
10 0 59441  14982.000000  0    5707604.950   3316783.750   1963030.129
10 0 59441  15102.000000  0    5971510.307   3258973.520   1081377.802
10 0 59441  15222.000000  0    6129486.725   3140501.285    180687.435
10 0 59441  15342.000000  0    6177785.448   2965345.303   -723183.721
10 0 59441  15462.000000  0    6114674.330   2738529.314  -1614336.970
10 0 59441  15582.000000  0    5940480.590   2465995.562  -2477118.891
10 0 59441  15702.000000  0    5657593.249   2154461.263  -3296402.922
10 0 59441  15822.000000  0    5270424.094   1811260.108  -4057858.266
10 0 59441  15942.000000  0    4785329.118   1444174.089  -4748201.477
10 0 59441  16062.000000  0    4210491.596   1061260.379  -5355423.773
10 0 59441  16182.000000  0    3555773.823    670678.406  -5868991.572
10 0 59441  16302.000000  0    2832539.601    280519.870  -6280019.744
10 0 59441  16422.000000  0    2053450.789   -101354.603  -6581413.796
10 0 59441  16542.000000  0    1232244.474   -467469.225  -6767980.967
10 0 59441  16662.000000  0     383492.527   -810875.336  -6836511.706
10 0 59441  16782.000000  0    -477653.820  -1125279.258  -6785827.721
10 0 59441  16902.000000  0   -1335727.377  -1405154.041  -6616799.481
10 0 59441  17022.000000  0   -2175216.491  -1645834.488  -6332333.695
10 0 59441  17142.000000  0   -2980839.446  -1843593.724  -5937327.775
10 0 59441  17262.000000  0   -3737816.921  -1995700.399  -5438594.805
10 0 59441  17382.000000  0   -4432142.899  -2100456.710  -4844758.426
10 0 59441  17502.000000  0   -5050847.069  -2157214.999  -4166114.687
10 0 59441  17622.000000  0   -5582243.114  -2166372.943  -3414464.160
10 0 59441  17742.000000  0   -6016158.907  -2129347.104  -2602914.645
10 0 59441  17862.000000  0   -6344141.796  -2048524.498  -1745656.876
10 0 59441  17982.000000  0   -6559634.398  -1927193.333   -857717.347
10 0 59441  18102.000000  0   -6658115.457  -1769454.116     45308.152
10 0 59441  18222.000000  0   -6637201.906  -1580112.944    947534.634
10 0 59441  18342.000000  0   -6496708.142  -1364559.271   1833075.962
10 0 59441  18462.000000  0   -6238660.601  -1128631.981   2686333.874
10 0 59441  18582.000000  0   -5867267.580   -878476.977   3492281.136
10 0 59441  18702.000000  0   -5388845.367   -620399.257   4236733.719
10 0 59441  18822.000000  0   -4811700.514   -360714.302   4906604.329
10 0 59441  18942.000000  0   -4145975.873   -105602.490   5490131.565
10 0 59441  19062.000000  0   -3403463.846    139030.813   5977084.609
10 0 59441  19182.000000  0   -2597388.264    367685.868   6358938.611
10 0 59441  19302.000000  0   -1742161.924    575386.549   6629017.849
10 0 59441  19422.000000  0    -853124.158    757784.233   6782606.772
10 0 59441  19542.000000  0      53736.167    911246.233   6817026.249
10 0 59441  19662.000000  0     962067.579   1032926.493   6731676.813
10 0 59441  19782.000000  0    1855449.601   1120818.323   6528048.591
10 0 59441  19902.000000  0    2717688.547   1173787.749   6209696.933
10 0 59441  20022.000000  0    3533111.393   1191586.893   5782185.051
10 0 59441  20142.000000  0    4286853.493   1174847.364   5252991.632
10 0 59441  20262.000000  0    4965132.751   1125053.897   4631386.287
10 0 59441  20382.000000  0    5555509.691   1044498.647   3928274.634
10 0 59441  20502.000000  0    6047126.129    936217.160   3156009.707
10 0 59441  20622.000000  0    6430914.091    803906.702   2328174.567
10 0 59441  20742.000000  0    6699772.294    651828.660   1459342.458
10 0 59441  20862.000000  0    6848706.454    484698.228    564814.693
10 0 59441  20982.000000  0    6874927.054    307562.927   -339655.801
10 0 59441  21102.000000  0    6777903.653    125673.521  -1238151.337
10 0 59441  21222.000000  0    6559372.387    -55649.012  -2114878.583
10 0 59441  21342.000000  0    6223297.844   -231147.639  -2954453.257
10 0 59441  21462.000000  0    5775791.642   -395760.909  -3742174.751
10 0 59441  21582.000000  0    5224989.153   -544748.409  -4464285.400
10 0 59441  21702.000000  0    4580888.054   -673806.548  -5108208.117
10 0 59441  21822.000000  0    3855155.461   -779172.451  -5662758.743
10 0 59441  21942.000000  0    3060907.503   -857715.082  -6118331.896
10 0 59441  22062.000000  0    2212465.295   -907010.679  -6467056.733
10 0 59441  22182.000000  0    1325094.035   -925400.363  -6702921.042
10 0 59441  22302.000000  0     414730.088   -912031.450  -6821864.799
10 0 59441  22422.000000  0    -502301.362   -866880.033  -6821842.697
10 0 59441  22542.000000  0   -1409572.252   -790755.197  -6702854.960
10 0 59441  22662.000000  0   -2290839.450   -685284.796  -6466947.741
10 0 59441  22782.000000  0   -3130329.063   -552882.850  -6118180.359
10 0 59441  22902.000000  0   -3913012.595   -396699.436  -5662563.438
10 0 59441  23022.000000  0   -4624875.698   -220553.247  -5107966.686
10 0 59441  23142.000000  0   -5253171.504    -28847.982  -4463993.691
10 0 59441  23262.000000  0   -5786655.428    173525.688  -3741827.795
10 0 59441  23382.000000  0   -6215797.436    381302.188  -2954047.202
10 0 59441  23502.000000  0   -6532964.753    588963.894  -2114412.106
10 0 59441  23622.000000  0   -6732570.679    790873.120  -1237626.836
10 0 59441  23742.000000  0   -6811186.646    981408.750   -339080.580
10 0 59441  23862.000000  0   -6767609.851   1155104.862    565429.771
10 0 59441  23982.000000  0   -6602886.324   1306787.729   1459983.705
10 0 59441  24102.000000  0   -6320290.701   1431708.020   2328825.806
10 0 59441  24222.000000  0   -5925260.324   1525664.158   3156652.741
10 0 59441  24342.000000  0   -5425284.975   1585113.395   3928890.995
10 0 59441  24462.000000  0   -4829755.932   1607268.019   4631958.155
10 0 59441  24582.000000  0   -4149779.885   1590174.590   5253503.018
10 0 59441  24702.000000  0   -3397962.913   1532774.465   5782621.003
10 0 59441  24822.000000  0   -2588169.072   1434944.460   6210042.774
10 0 59441  24942.000000  0   -1735256.939   1297517.222   6528292.464
10 0 59441  25062.000000  0    -854801.061   1122279.857   6731811.334
10 0 59441  25182.000000  0      37194.228    911952.007   6817047.842
10 0 59441  25302.000000  0     924585.033    670143.457   6782515.297
10 0 59441  25422.000000  0    1791378.766    401292.222   6628816.045
10 0 59441  25542.000000  0    2622020.976    110583.875   6358631.970
10 0 59441  25662.000000  0    3401674.665   -196147.109   5976681.987
10 0 59441  25782.000000  0    4116487.839   -512532.436   5489644.442
10 0 59441  25902.000000  0    4753843.582   -831799.472   4906046.197
10 0 59441  26022.000000  0    5302589.444  -1146912.951   4236119.581
10 0 59441  26142.000000  0    5753240.964  -1450726.060   3491627.373
10 0 59441  26262.000000  0    6098155.461  -1736138.191   2685658.437
10 0 59441  26382.000000  0    6331670.828  -1996255.159   1832396.625
10 0 59441  26502.000000  0    6450205.995  -2224548.354    946867.683
99
